ONEWEB-0247             
1 48777U 21045L   24085.94236457 -.00000028  00000+0 -10962-3 0  9996
2 48777  87.8989  61.0532 0001398  48.1678 311.9571 13.15549079137480
ONEWEB-0245             
1 48778U 21045M   24085.93761447  .00000071  00000+0  15467-3 0  9999
2 48778  87.8983  61.0491 0001653  89.8908 270.2412 13.15548056137453
ONEWEB-0229             
1 48779U 21045N   24085.93286099  .00000107  00000+0  25092-3 0  9990
2 48779  87.8985  61.0426 0001815  77.8833 282.2500 13.15548960137486
ONEWEB-0228             
1 48780U 21045P   24085.94791418 -.00000046  00000+0 -15661-3 0  9994
2 48780  87.8981  61.0167 0001866  80.3684 279.7657 13.15548810137405
ONEWEB-0232             
1 48781U 21045Q   24085.94077271  .00000033  00000+0  52354-4 0  9994
2 48781  87.8976  61.0434 0001842  80.3377 279.7962 13.15548451137725
ONEWEB-0231             
1 48782U 21045R   24085.91860201  .00000315  00000+0  80268-3 0  9992
2 48782  87.8994  61.0650 0001678  79.8327 280.2993 13.15548616137411
ONEWEB-0234             
1 48783U 21045S   24085.93839545  .00000045  00000+0  85964-4 0  9991
2 48783  87.8985  61.0265 0002580 116.0357 244.1039 13.15547267137550
ONEWEB-0238             
1 48784U 21045T   24085.89245076  .00000050  00000+0  99688-4 0  9991
2 48784  87.8982  61.0544 0001967  88.3527 271.7828 13.15548994137444
